start=new Date('2022-12-05T00:00:00.000Z').valueOf();
sats=[{"RA_OF_ASC_NODE":"327.0612","BSTAR":"0.00008695400000","COUNTRY_CODE":"US","PERIAPSIS":"537.880","ARG_OF_PERICENTER":"32.7954","SEMIMAJOR_AXIS":"6917.863","SITE":"AFETR","TLE_LINE2":"2 51852  53.2182 327.0612 0002672  32.7954 327.3203 15.08845648 41916","REF_FRAME":"TEME","CENTER_NAME":"EARTH","MEAN_MOTION_DOT":"0.00001096","LAUNCH_DATE":"2022-03-03","MEAN_ELEMENT_THEORY":"SGP4","MEAN_MOTION_DDOT":"0.0000000000000","OBJECT_TYPE":"PAYLOAD","ECCENTRICITY":"0.00026720","CLASSIFICATION_TYPE":"U","RCS_SIZE":"LARGE","MEAN_ANOMALY":"327.3203","REV_AT_EPOCH":"4191","FILE":"3681207","GP_ID":"219521440","INCLINATION":"53.2182","TIME_SYSTEM":"UTC","APOAPSIS":"541.577","EPOCH":"2022-12-04T09:25:12.314496","MEAN_MOTION":"15.08845648","OBJECT_NAME":"STARLINK-3542","DECAY_DATE":null,"TLE_LINE1":"1 51852U 22022A   22338.39250364  .00001096  00000-0  86954-4 0  9991","EPHEMERIS_TYPE":"0","OBJECT_ID":"2022-022A","PERIOD":"95.437","ELEMENT_SET_NO":"999","NORAD_CAT_ID":"51852"},{"MEAN_MOTION":"15.08835836","APOAPSIS":"541.390","EPOCH":"2022-12-04T11:05:53.504448","TIME_SYSTEM":"UTC","INCLINATION":"53.2175","FILE":"3681207","GP_ID":"219522692","REV_AT_EPOCH":"4312","MEAN_ANOMALY":"320.1336","NORAD_CAT_ID":"51853","OBJECT_ID":"2022-022B","ELEMENT_SET_NO":"999","PERIOD":"95.438","EPHEMERIS_TYPE":"0","OBJECT_NAME":"STARLINK-3539","TLE_LINE1":"1 51853U 22022B   22338.46242482 -.00000192  00000-0  60379-5 0  9993","DECAY_DATE":null,"REF_FRAME":"TEME","MEAN_MOTION_DOT":"-0.00000192","CENTER_NAME":"EARTH","TLE_LINE2":"2 51853  53.2175 326.7541 0002359  39.9829 320.1336 15.08835836 43129","SITE":"AFETR","SEMIMAJOR_AXIS":"6917.893","COUNTRY_CODE":"US","ARG_OF_PERICENTER":"39.9829","PERIAPSIS":"538.126","RA_OF_ASC_NODE":"326.7541","BSTAR":"0.00000603790000","OBJECT_TYPE":"PAYLOAD","RCS_SIZE":"MEDIUM","CLASSIFICATION_TYPE":"U","ECCENTRICITY":"0.00023590","MEAN_MOTION_DDOT":"0.0000000000000","MEAN_ELEMENT_THEORY":"SGP4","LAUNCH_DATE":"2022-03-03"},{"EPHEMERIS_TYPE":"0","TLE_LINE1":"1 51854U 22022C   22338.38882161  .00000530  00000-0  51448-4 0  9990","DECAY_DATE":null,"OBJECT_NAME":"STARLINK-3541","NORAD_CAT_ID":"51854","ELEMENT_SET_NO":"999","PERIOD":"95.438","OBJECT_ID":"2022-022C","GP_ID":"219522442","FILE":"3681207","REV_AT_EPOCH":"4317","MEAN_ANOMALY":"325.4437","MEAN_MOTION":"15.08840379","APOAPSIS":"541.548","EPOCH":"2022-12-04T09:19:54.187104","TIME_SYSTEM":"UTC","INCLINATION":"53.2179","MEAN_MOTION_DDOT":"0.0000000000000","MEAN_ELEMENT_THEORY":"SGP4","LAUNCH_DATE":"2022-03-03","CLASSIFICATION_TYPE":"U","RCS_SIZE":"LARGE","ECCENTRICITY":"0.00026070","OBJECT_TYPE":"PAYLOAD","ARG_OF_PERICENTER":"34.6725","PERIAPSIS":"537.941","COUNTRY_CODE":"US","BSTAR":"0.00005144800000","RA_OF_ASC_NODE":"327.0740","MEAN_MOTION_DOT":"0.00000530","CENTER_NAME":"EARTH","REF_FRAME":"TEME","TLE_LINE2":"2 51854  53.2179 327.0740 0002607  34.6725 325.4437 15.08840379 43175","SITE":"AFETR","SEMIMAJOR_AXIS":"6917.879"},{"OBJECT_NAME":"STARLINK-3545","DECAY_DATE":null,"TLE_LINE1":"1 51855U 22022D   22338.44770428  .00004671  00000-0  31132-3 0  9997","EPHEMERIS_TYPE":"0","OBJECT_ID":"2022-022D","PERIOD":"95.437","ELEMENT_SET_NO":"999","NORAD_CAT_ID":"51855","MEAN_ANOMALY":"326.3959","REV_AT_EPOCH":"4313","FILE":"3681207","GP_ID":"219521691","TIME_SYSTEM":"UTC","INCLINATION":"53.2180","APOAPSIS":"541.583","EPOCH":"2022-12-04T10:44:41.649792","MEAN_MOTION":"15.08850576","LAUNCH_DATE":"2022-03-03","MEAN_ELEMENT_THEORY":"SGP4","MEAN_MOTION_DDOT":"0.0000000000000","OBJECT_TYPE":"PAYLOAD","ECCENTRICITY":"0.00027030","RCS_SIZE":"LARGE","CLASSIFICATION_TYPE":"U","RA_OF_ASC_NODE":"326.8222","BSTAR":"0.00031132000000","COUNTRY_CODE":"US","PERIAPSIS":"537.843","ARG_OF_PERICENTER":"33.7205","SEMIMAJOR_AXIS":"6917.848","TLE_LINE2":"2 51855  53.2180 326.8222 0002703  33.7205 326.3959 15.08850576 43135","SITE":"AFETR","REF_FRAME":"TEME","CENTER_NAME":"EARTH","MEAN_MOTION_DOT":"0.00004671"},{"REF_FRAME":"TEME","CENTER_NAME":"EARTH","MEAN_MOTION_DOT":"-0.00000420","SEMIMAJOR_AXIS":"6917.892","SITE":"AFETR","TLE_LINE2":"2 51856  53.2183 326.8047 0002302  43.0463 317.0709 15.08836289 43213","COUNTRY_CODE":"US","PERIAPSIS":"538.164","ARG_OF_PERICENTER":"43.0463","RA_OF_ASC_NODE":"326.8047","BSTAR":"-0.00000829750000","OBJECT_TYPE":"PAYLOAD","ECCENTRICITY":"0.00023020","RCS_SIZE":"LARGE","CLASSIFICATION_TYPE":"U","MEAN_ELEMENT_THEORY":"SGP4","MEAN_MOTION_DDOT":"0.0000000000000","LAUNCH_DATE":"2022-03-03","MEAN_MOTION":"15.08836289","TIME_SYSTEM":"UTC","INCLINATION":"53.2183","APOAPSIS":"541.349","EPOCH":"2022-12-04T10:49:59.981952","FILE":"3681409","GP_ID":"219529389","MEAN_ANOMALY":"317.0709","REV_AT_EPOCH":"4321","NORAD_CAT_ID":"51856","OBJECT_ID":"2022-022E","PERIOD":"95.438","ELEMENT_SET_NO":"999","EPHEMERIS_TYPE":"0","OBJECT_NAME":"STARLINK-3568","DECAY_DATE":null,"TLE_LINE1":"1 51856U 22022E   22338.45138868 -.00000420  00000-0 -82975-5 0  9998"},{"EPHEMERIS_TYPE":"0","TLE_LINE1":"1 51857U 22022F   22338.70530427  .00000831  00000-0  70322-4 0  9990","DECAY_DATE":null,"OBJECT_NAME":"STARLINK-3571","NORAD_CAT_ID":"51857","ELEMENT_SET_NO":"999","PERIOD":"95.438","OBJECT_ID":"2022-022F","GP_ID":"219555877","FILE":"3681494","REV_AT_EPOCH":"4322","MEAN_ANOMALY":"320.3390","MEAN_MOTION":"15.08840673","APOAPSIS":"541.265","EPOCH":"2022-12-04T16:55:38.288928","TIME_SYSTEM":"UTC","INCLINATION":"53.2192","MEAN_MOTION_DDOT":"0.0000000000000","MEAN_ELEMENT_THEORY":"SGP4","LAUNCH_DATE":"2022-03-03","CLASSIFICATION_TYPE":"U","RCS_SIZE":"LARGE","ECCENTRICITY":"0.00021990","OBJECT_TYPE":"PAYLOAD","ARG_OF_PERICENTER":"39.7763","PERIAPSIS":"538.222","COUNTRY_CODE":"US","BSTAR":"0.00007032200000","RA_OF_ASC_NODE":"325.6612","MEAN_MOTION_DOT":"0.00000831","CENTER_NAME":"EARTH","REF_FRAME":"TEME","TLE_LINE2":"2 51857  53.2192 325.6612 0002199  39.7763 320.3390 15.08840673 43224","SITE":"AFETR","SEMIMAJOR_AXIS":"6917.878"},{"NORAD_CAT_ID":"51858","OBJECT_ID":"2022-022G","ELEMENT_SET_NO":"999","PERIOD":"95.438","EPHEMERIS_TYPE":"0","OBJECT_NAME":"STARLINK-3563","TLE_LINE1":"1 51858U 22022G   22338.70898932  .00001808  00000-0  13171-3 0  9992","DECAY_DATE":null,"MEAN_MOTION":"15.08839444","APOAPSIS":"541.336","EPOCH":"2022-12-04T17:00:56.677248","TIME_SYSTEM":"UTC","INCLINATION":"53.2170","FILE":"3681494","GP_ID":"219556128","REV_AT_EPOCH":"4322","MEAN_ANOMALY":"321.2881","OBJECT_TYPE":"PAYLOAD","RCS_SIZE":"LARGE","CLASSIFICATION_TYPE":"U","ECCENTRICITY":"0.00022970","MEAN_ELEMENT_THEORY":"SGP4","MEAN_MOTION_DDOT":"0.0000000000000","LAUNCH_DATE":"2022-03-03","REF_FRAME":"TEME","MEAN_MOTION_DOT":"0.00001808","CENTER_NAME":"EARTH","TLE_LINE2":"2 51858  53.2170 325.6496 0002297  38.8276 321.2881 15.08839444 43228","SITE":"AFETR","SEMIMAJOR_AXIS":"6917.882","COUNTRY_CODE":"US","ARG_OF_PERICENTER":"38.8276","PERIAPSIS":"538.158","RA_OF_ASC_NODE":"325.6496","BSTAR":"0.00013171000000"},{"MEAN_ELEMENT_THEORY":"SGP4","MEAN_MOTION_DDOT":"0.0000000000000","LAUNCH_DATE":"2022-03-03","OBJECT_TYPE":"PAYLOAD","CLASSIFICATION_TYPE":"U","RCS_SIZE":"LARGE","ECCENTRICITY":"0.00023810","COUNTRY_CODE":"US","ARG_OF_PERICENTER":"38.3331","PERIAPSIS":"538.065","RA_OF_ASC_NODE":"315.8623","BSTAR":"0.00014238000000","REF_FRAME":"TEME","MEAN_MOTION_DOT":"0.00001979","CENTER_NAME":"EARTH","SITE":"AFETR","TLE_LINE2":"2 51859  53.2196 315.8623 0002381  38.3331 321.7830 15.08850879 43359","SEMIMAJOR_AXIS":"6917.847","EPHEMERIS_TYPE":"0","OBJECT_NAME":"STARLINK-3560","TLE_LINE1":"1 51859U 22022H   22338.65838166  .00001979  00000-0  14238-3 0  9994","DECAY_DATE":null,"NORAD_CAT_ID":"51859","OBJECT_ID":"2022-022H","ELEMENT_SET_NO":"999","PERIOD":"95.437","FILE":"3681494","GP_ID":"219556880","REV_AT_EPOCH":"4335","MEAN_ANOMALY":"321.7830","MEAN_MOTION":"15.08850879","EPOCH":"2022-12-04T15:48:04.175424","APOAPSIS":"541.359","TIME_SYSTEM":"UTC","INCLINATION":"53.2196"},{"INCLINATION":"53.2196","TIME_SYSTEM":"UTC","EPOCH":"2022-12-04T15:58:40.024128","APOAPSIS":"541.877","MEAN_MOTION":"15.08836448","MEAN_ANOMALY":"330.2318","REV_AT_EPOCH":"4331","FILE":"3681494","GP_ID":"219557121","OBJECT_ID":"2022-022J","PERIOD":"95.438","ELEMENT_SET_NO":"999","NORAD_CAT_ID":"51860","OBJECT_NAME":"STARLINK-3559","DECAY_DATE":null,"TLE_LINE1":"1 51860U 22022J   22338.66574102  .00004490  00000-0  30008-3 0  9998","EPHEMERIS_TYPE":"0","SEMIMAJOR_AXIS":"6917.891","TLE_LINE2":"2 51860  53.2196 315.8297 0003065  29.8849 330.2318 15.08836448 43315","SITE":"AFETR","REF_FRAME":"TEME","CENTER_NAME":"EARTH","MEAN_MOTION_DOT":"0.00004490","RA_OF_ASC_NODE":"315.8297","BSTAR":"0.00030008000000","COUNTRY_CODE":"US","PERIAPSIS":"537.636","ARG_OF_PERICENTER":"29.8849","OBJECT_TYPE":"PAYLOAD","ECCENTRICITY":"0.00030650","RCS_SIZE":"LARGE","CLASSIFICATION_TYPE":"U","LAUNCH_DATE":"2022-03-03","MEAN_MOTION_DDOT":"0.0000000000000","MEAN_ELEMENT_THEORY":"SGP4"},{"FILE":"3681494","GP_ID":"219556377","REV_AT_EPOCH":"4322","MEAN_ANOMALY":"329.2795","MEAN_MOTION":"15.08836445","EPOCH":"2022-12-04T15:37:29.381664","APOAPSIS":"541.538","TIME_SYSTEM":"UTC","INCLINATION":"53.2179","EPHEMERIS_TYPE":"0","OBJECT_NAME":"STARLINK-3562","TLE_LINE1":"1 51861U 22022K   22338.65103451  .00000470  00000-0  47650-4 0  9999","DECAY_DATE":null,"NORAD_CAT_ID":"51861","OBJECT_ID":"2022-022K","ELEMENT_SET_NO":"999","PERIOD":"95.438","COUNTRY_CODE":"US","ARG_OF_PERICENTER":"30.8348","PERIAPSIS":"537.974","RA_OF_ASC_NODE":"315.8945","BSTAR":"0.00004765000000","REF_FRAME":"TEME","MEAN_MOTION_DOT":"0.00000470","CENTER_NAME":"EARTH","TLE_LINE2":"2 51861  53.2179 315.8945 0002576  30.8348 329.2795 15.08836445 43223","SITE":"AFETR","SEMIMAJOR_AXIS":"6917.891","MEAN_ELEMENT_THEORY":"SGP4","MEAN_MOTION_DDOT":"0.0000000000000","LAUNCH_DATE":"2022-03-03","OBJECT_TYPE":"PAYLOAD","CLASSIFICATION_TYPE":"U","RCS_SIZE":"LARGE","ECCENTRICITY":"0.00025760"}];
